NORAD_CAT_ID,OBJECT_NAME,OBJECT_TYPE,EPOCH,MEAN_MOTION,ECCENTRICITY,INCLINATION,RA_OF_ASC_NODE,ARG_OF_PERICENTER,MEAN_ANOMALY,BSTAR,MEAN_MOTION_DOT,MEAN_MOTION_DDOT,TLE_LINE0,TLE_LINE1,TLE_LINE2,SEMIMAJOR_AXIS,PERIOD,APOGEE,PERIGEE,DECAYED
52641.0,STARLINK-3991,PAYLOAD,2024-03-25 16:17:42,15.08858128,0.0001181,53.2163,224.6435,85.8277,274.285,0.00049177,7.551e-05,0.0,0 STARLINK-3991,1 52641U 22052AV  24085.67896631  .00007551  00000-0  49177-3 0  9993,2 52641  53.2163 224.6435 0001181  85.8277 274.2850 15.08858128103349,6917.825,95.436,540.507,538.873,0.0
52641.0,STARLINK-3991,PAYLOAD,2024-03-26 12:57:44,15.08816467,0.0001007,53.216,220.7685,105.7614,254.3489,-0.00016865,-2.969e-05,0.0,0 STARLINK-3991,1 52641U 22052AV  24086.54010219 -.00002969  00000-0 -16865-3 0  9998,2 52641  53.2160 220.7685 0001007 105.7614 254.3489 15.08816467103846,6917.952,95.439,540.514,539.121,0.0
52641.0,STARLINK-3991,PAYLOAD,2024-03-26 14:33:08,15.08819097,8.62e-05,53.2161,220.4714,91.9804,268.1286,-3.1309e-05,-7.86e-06,0.0,0 STARLINK-3991,1 52641U 22052AV  24086.60634369 -.00000786  00000-0 -31309-4 0  9999,2 52641  53.2161 220.4714 0000862  91.9804 268.1286 15.08819097103482,6917.944,95.439,540.406,539.213,0.0
52641.0,STARLINK-3991,PAYLOAD,2024-03-26 16:08:31,15.08818453,8.7e-05,53.2161,220.1809,65.8696,294.2387,0.00018362,2.634e-05,0.0,0 STARLINK-3991,1 52641U 22052AV  24086.67258684  .00002634  00000-0  18362-3 0  9993,2 52641  53.2161 220.1809 0000870  65.8696 294.2387 15.08818453103490,6917.946,95.439,540.413,539.209,0.0
52641.0,STARLINK-3991,PAYLOAD,2024-03-27 01:40:50,15.08829209,8.64e-05,53.2167,218.395,89.4425,270.6666,0.00066125,0.00010248,0.0,0 STARLINK-3991,1 52641U 22052AV  24087.07002932  .00010248  00000-0  66125-3 0  9991,2 52641  53.2167 218.3950 0000864  89.4425 270.6666 15.08829209103924,6917.913,95.438,540.376,539.181,0.0
52641.0,STARLINK-3991,PAYLOAD,2024-03-27 12:48:32,15.08851291,6.98e-05,53.2154,216.3137,85.2914,274.8158,0.00094733,0.00014826,0.0,0 STARLINK-3991,1 52641U 22052AV  24087.53370576  .00014826  00000-0  94733-3 0  9996,2 52641  53.2154 216.3137 0000698  85.2914 274.8158 15.08851291103992,6917.846,95.437,540.194,539.228,0.0
52641.0,STARLINK-3991,PAYLOAD,2024-03-27 14:23:55,15.08856457,7.31e-05,53.2156,216.0162,84.2337,275.8738,0.0010779,0.00016916,0.0,0 STARLINK-3991,1 52641U 22052AV  24087.59994474  .00016916  00000-0  10779-2 0  9990,2 52641  53.2156 216.0162 0000731  84.2337 275.8738 15.08856457103630,6917.83,95.437,540.201,539.189,0.0
52641.0,STARLINK-3991,PAYLOAD,2024-03-27 17:34:41,15.08872775,8.48e-05,53.2163,215.4239,88.3123,271.7966,0.0015423,0.00024365,0.0,0 STARLINK-3991,1 52641U 22052AV  24087.73242155  .00024365  00000-0  15423-2 0  9996,2 52641  53.2163 215.4239 0000848  88.3123 271.7966 15.08872775104026,6917.78,95.435,540.232,539.059,0.0
52641.0,STARLINK-3991,PAYLOAD,2024-03-28 01:31:36,15.08861643,9.87e-05,53.2157,213.935,84.1875,275.923,0.00077639,0.00012097,0.0,0 STARLINK-3991,1 52641U 22052AV  24088.06362097  .00012097  00000-0  77639-3 0  9998,2 52641  53.2157 213.9350 0000987  84.1875 275.9230 15.08861643104075,6917.814,95.436,540.362,538.996,0.0
52641.0,STARLINK-3991,PAYLOAD,2024-03-28 12:39:19,15.08850762,0.00017,53.2158,211.8556,83.6834,276.4352,0.0011417,0.00017934,0.0,0 STARLINK-3991,1 52641U 22052AV  24088.52730394  .00017934  00000-0  11417-2 0  9994,2 52641  53.2158 211.8556 0001700  83.6834 276.4352 15.08850762104143,6917.847,95.437,540.889,538.536,0.0
52641.0,STARLINK-3991,PAYLOAD,2024-03-28 14:14:42,15.08850604,0.0001166,53.2158,211.5588,87.1508,272.9618,0.0013042,0.00020535,0.0,0 STARLINK-3991,1 52641U 22052AV  24088.59354247  .00020535  00000-0  13042-2 0  9997,2 52641  53.2158 211.5588 0001166  87.1508 272.9618 15.08850604103788,6917.848,95.437,540.52,538.906,0.0
52641.0,STARLINK-3991,PAYLOAD,2024-03-29 14:05:28,15.08865654,0.0001003,53.2164,207.0972,92.3423,267.7684,0.0015889,0.00025108,0.0,0 STARLINK-3991,1 52641U 22052AV  24089.58713969  .00025108  00000-0  15889-2 0  9999,2 52641  53.2164 207.0972 0001003  92.3423 267.7684 15.08865654104301,6917.802,95.436,540.361,538.973,0.0
52641.0,STARLINK-3991,PAYLOAD,2024-03-29 17:16:14,15.08864189,0.0001165,53.2139,206.5043,81.3986,278.7138,0.0011984,0.00018849,0.0,0 STARLINK-3991,1 52641U 22052AV  24089.71961769  .00018849  00000-0  11984-2 0  9993,2 52641  53.2139 206.5043 0001165  81.3986 278.7138 15.08864189103955,6917.806,95.436,540.477,538.866,0.0
52641.0,STARLINK-3991,PAYLOAD,2024-03-30 01:13:10,15.08838311,0.0002027,53.2155,205.0149,93.0506,267.0718,7.7789e-05,9.5e-06,0.0,0 STARLINK-3991,1 52641U 22052AV  24090.05081965  .00000950  00000-0  77789-4 0  9994,2 52641  53.2155 205.0149 0002027  93.0506 267.0718 15.08838311104370,6917.886,95.438,541.153,538.348,0.0
52641.0,STARLINK-3991,PAYLOAD,2024-03-30 13:56:15,15.08843658,0.000151,53.2135,202.6377,78.3417,281.7745,0.00026307,3.902e-05,0.0,0 STARLINK-3991,1 52641U 22052AV  24090.58074074  .00003902  00000-0  26307-3 0  9994,2 52641  53.2135 202.6377 0001510  78.3417 281.7745 15.08843658104088,6917.869,95.437,540.779,538.69,0.0
52641.0,STARLINK-3991,PAYLOAD,2024-03-31 13:47:03,15.088472,0.0001404,53.2154,198.1764,82.8677,277.2474,0.00030909,4.636e-05,0.0,0 STARLINK-3991,1 52641U 22052AV  24091.57434091  .00004636  00000-0  30909-3 0  9991,2 52641  53.2154 198.1764 0001404  82.8677 277.2474 15.08847200104602,6917.858,95.437,540.695,538.752,0.0
52641.0,STARLINK-3991,PAYLOAD,2024-04-01 13:37:50,15.08833278,0.0001219,53.2153,193.718,83.4453,276.6677,6.324e-05,7.19e-06,0.0,0 STARLINK-3991,1 52641U 22052AV  24092.56795063  .00000719  00000-0  63240-4 0  9993,2 52641  53.2153 193.7180 0001219  83.4453 276.6677 15.08833278104751,6917.901,95.438,540.609,538.923,0.0
52641.0,STARLINK-3991,PAYLOAD,2024-04-02 13:28:37,15.088569,0.0001213,53.2162,189.2582,88.8381,271.275,0.00051879,7.982e-05,0.0,0 STARLINK-3991,1 52641U 22052AV  24093.56154324  .00007982  00000-0  51879-3 0  9996,2 52641  53.2162 189.2582 0001213  88.8381 271.2750 15.08856900104907,6917.829,95.436,540.533,538.855,0.0
52641.0,STARLINK-3991,PAYLOAD,2024-04-03 13:19:25,15.08829982,0.0001289,53.2151,184.7956,78.9394,281.1743,-8.2542e-05,-1.601e-05,0.0,0 STARLINK-3991,1 52641U 22052AV  24094.55515530 -.00001601  00000-0 -82542-4 0  9992,2 52641  53.2151 184.7956 0001289  78.9394 281.1743 15.08829982105056,6917.911,95.438,540.668,538.884,0.0
52641.0,STARLINK-3991,PAYLOAD,2024-04-03 16:30:11,15.08831969,0.000135,53.2149,184.2011,81.4357,278.6788,5.0385e-05,5.14e-06,0.0,0 STARLINK-3991,1 52641U 22052AV  24094.68763624  .00000514  00000-0  50385-4 0  9995,2 52641  53.2149 184.2011 0001350  81.4357 278.6788 15.08831969104706,6917.905,95.438,540.704,538.836,0.0
52641.0,STARLINK-3991,PAYLOAD,2024-04-04 11:34:49,15.08848367,0.0001405,53.2148,180.6325,88.1633,271.952,0.0006205,9.603e-05,0.0,0 STARLINK-3991,1 52641U 22052AV  24095.48251510  .00009603  00000-0  62050-3 0  9999,2 52641  53.2148 180.6325 0001405  88.1633 271.9520 15.08848367105199,6917.855,95.437,540.692,538.748,0.0
52641.0,STARLINK-3991,PAYLOAD,2024-04-04 22:42:30,15.08856737,0.0001491,53.2152,178.5516,93.6638,266.4525,0.00064866,0.00010055,0.0,0 STARLINK-3991,1 52641U 22052AV  24095.94619141  .00010055  00000-0  64866-3 0  9998,2 52641  53.2152 178.5516 0001491  93.6638 266.4525 15.08856737104893,6917.829,95.436,540.726,538.663,0.0
52641.0,STARLINK-3991,PAYLOAD,2024-04-05 13:00:58,15.08864399,0.000153,53.2153,175.8756,93.0717,267.045,0.00056201,8.674e-05,0.0,0 STARLINK-3991,1 52641U 22052AV  24096.54234437  .00008674  00000-0  56201-3 0  9994,2 52641  53.2153 175.8756 0001530  93.0717 267.0450 15.08864399105355,6917.806,95.436,540.729,538.612,0.0
52641.0,STARLINK-3991,PAYLOAD,2024-04-06 09:40:59,15.08845921,0.0002234,53.2181,172.0102,67.5287,292.5942,0.00035053,5.296e-05,0.0,0 STARLINK-3991,1 52641U 22052AV  24097.40346911  .00005296  00000-0  35053-3 0  9990,2 52641  53.2181 172.0102 0002234  67.5287 292.5942 15.08845921105483,6917.862,95.437,541.273,538.182,0.0
52641.0,STARLINK-3991,PAYLOAD,2024-04-06 22:24:04,15.08840454,0.0001599,53.2157,169.6303,88.6301,271.4874,0.00010731,1.42e-05,0.0,0 STARLINK-3991,1 52641U 22052AV  24097.93338754  .00001420  00000-0  10731-3 0  9995,2 52641  53.2157 169.6303 0001599  88.6301 271.4874 15.08840454105199,6917.879,95.438,540.85,538.638,0.0
52641.0,STARLINK-3991,PAYLOAD,2024-04-07 09:31:46,15.08841371,0.0001494,53.2157,167.5489,90.8655,269.2508,6.4013e-05,7.31e-06,0.0,0 STARLINK-3991,1 52641U 22052AV  24098.39706781  .00000731  00000-0  64013-4 0  9992,2 52641  53.2157 167.5489 0001494  90.8655 269.2508 15.08841371105639,6917.876,95.437,540.775,538.708,0.0
52641.0,STARLINK-3991,PAYLOAD,2024-04-07 14:17:56,15.08843088,0.0001552,53.217,166.6565,92.0514,268.0656,9.5536e-05,1.233e-05,0.0,0 STARLINK-3991,1 52641U 22052AV  24098.59578723  .00001233  00000-0  95536-4 0  9999,2 52641  53.2170 166.6565 0001552  92.0514 268.0656 15.08843088105292,6917.871,95.437,540.81,538.662,0.0
52641.0,STARLINK-3991,PAYLOAD,2024-04-08 10:57:57,15.08839505,0.0001502,53.2166,162.7902,92.2279,267.8885,0.00012422,1.69e-05,0.0,0 STARLINK-3991,1 52641U 22052AV  24099.45691062  .00001690  00000-0  12422-3 0  9996,2 52641  53.2166 162.7902 0001502  92.2279 267.8885 15.08839505105799,6917.882,95.438,540.786,538.708,0.0
52641.0,STARLINK-3991,PAYLOAD,2024-04-08 14:08:43,15.08840042,0.0001509,53.2165,162.1955,92.0252,268.0913,0.00012345,1.677e-05,0.0,0 STARLINK-3991,1 52641U 22052AV  24099.58939048  .00001677  00000-0  12345-3 0  9998,2 52641  53.2165 162.1955 0001509  92.0252 268.0913 15.08840042105441,6917.88,95.438,540.789,538.701,0.0
52641.0,STARLINK-3991,PAYLOAD,2024-04-09 09:13:20,15.08840837,0.0001468,53.2161,158.627,91.5536,268.5624,0.00011672,1.57e-05,0.0,0 STARLINK-3991,1 52641U 22052AV  24100.38427022  .00001570  00000-0  11672-3 0  9997,2 52641  53.2161 158.6270 0001468  91.5536 268.5624 15.08840837105569,6917.878,95.438,540.758,538.727,0.0
